[{"OBJECT_NAME":"STARLINK-3265","OBJECT_ID":"2021-125AA","EPOCH":"2026-03-09T19:26:59.229600","MEAN_MOTION":15.08837854,"ECCENTRICITY":0.00012903,"INCLINATION":53.2171,"RA_OF_ASC_NODE":248.5905,"ARG_OF_PERICENTER":92.569,"MEAN_ANOMALY":267.545,"EPHEMERIS_TYPE":0,"CLASSIFICATION_TYPE":"U","NORAD_CAT_ID":50180,"ELEMENT_SET_NO":999,"REV_AT_EPOCH":23666,"BSTAR":3.2751093e-5,"MEAN_MOTION_DOT":2.33e-6,"MEAN_MOTION_DDOT":0},{"OBJECT_NAME":"PEGASUS DEB","OBJECT_ID":"1994-029AFV","EPOCH":"2026-03-07T18:19:12.614880","MEAN_MOTION":14.92266405,"ECCENTRICITY":0.0107713,"INCLINATION":81.5817,"RA_OF_ASC_NODE":82.8303,"ARG_OF_PERICENTER":304.7008,"MEAN_ANOMALY":54.4096,"EPHEMERIS_TYPE":0,"CLASSIFICATION_TYPE":"U","NORAD_CAT_ID":39922,"ELEMENT_SET_NO":999,"REV_AT_EPOCH":62967,"BSTAR":0.0012051888,"MEAN_MOTION_DOT":0.00013798,"MEAN_MOTION_DDOT":0}]
